CZ-2C R/B               
1 54039U 22132E   26026.48373890  .00044324  00000+0  58398-3 0  9991
2 54039  97.2956  28.6472 0016682 243.7409 116.2133 15.58145345183798
GSLV R/B                
1 54149U 22138AN  26026.66399098  .00004558  00000+0  39811-3 0  9991
2 54149  87.3845 180.4266 0019809 308.2478  51.6970 14.96435566177648
XRISM                   
1 57800U 23137A   26026.50130569  .00008541  00000+0  49371-3 0  9995
2 57800  31.0009 196.4224 0008049 336.3305  23.6962 15.10936615131401
ACS3                    
1 59588U 24077B   26026.56405290  .00027688  00000+0  23061-1 0  9995
2 59588  97.2313 337.1423 0048951 215.8525 143.9349 13.87796484 88354
SZ-21 MODULE            
1 66515U 25246C   26026.56190754  .00037546  00000+0  36755-3 0  9998
2 66515  41.4753 102.0620 0003291 241.2609 118.7902 15.65368052 11460
